ORBCOMM-X [-]           
1 21576U 91050C   23275.74078756  .00000612  00000+0  19919-3 0  9999
2 21576  98.4247 341.7406 0002488 266.4228  93.6677 14.42191176692229
ORBCOMM FM01 [-]        
1 23545U 95017A   23275.83143309  .00007269  00000+0  10480-2 0  9999
2 23545  69.9685 170.3944 0006247 210.8764 149.2017 14.76641049520114
ORBCOMM FM02 [-]        
1 23546U 95017B   23275.86546414  .00007983  00000+0  11630-2 0  9998
2 23546  69.9710 189.3290 0007555 198.4039 161.6837 14.76145739519770
ORBCOMM FM08 [-]        
1 25112U 97084A   23275.85915838  .00002583  00000+0  83461-3 0  9997
2 25112  45.0133 108.6141 0007044 345.5064  14.5583 14.41300351351313
ORBCOMM FM10 [-]        
1 25113U 97084B   23275.85526049  .00002315  00000+0  75362-3 0  9994
2 25113  45.0146 110.3451 0004651 314.9665  45.0807 14.41243809526462
ORBCOMM FM11 [+]        
1 25114U 97084C   23275.85645723  .00002629  00000+0  85176-3 0  9998
2 25114  45.0132 110.2414 0005391 315.2951  44.7463 14.41130131351430
ORBCOMM FM12 [-]        
1 25115U 97084D   23275.81256317  .00002298  00000+0  75035-3 0  9997
2 25115  45.0140 110.0908 0004407 316.3287  43.7214 14.41120378351229
ORBCOMM FM09 [-]        
1 25116U 97084E   23275.68060124  .00002488  00000+0  80904-3 0  9994
2 25116  45.0143 111.3494 0005575 297.6638  62.3646 14.41101934351419
